{
    "Callisto": {
        "gravitational_parameter": 7179289000000.0,
        "orbit": {
            "argument_of_periapsis": 0.9187936781273749,
            "eccentricity": 0.0074,
            "epoch": -93355200.0,
            "inclination": 0.035779016740425745,
            "longitude_of_ascending_node": 2.7996539023319675,
            "mean_anomaly_at_epoch": 3.166166889457873,
            "primary": "Jupiter",
            "semi_major_axis": 1882700000.0
        },
        "radius": 2410300.0
    },
    "Calypso": {
        "gravitational_parameter": 170000.0,
        "orbit": {
            "argument_of_periapsis": 0.30490902032340933,
            "eccentricity": 0.0005,
            "epoch": 0.0,
            "inclination": 0.47117984683183833,
            "longitude_of_ascending_node": 2.999050078799301,
            "mean_anomaly_at_epoch": 2.7342328061743166,
            "primary": "Saturn",
            "semi_major_axis": 294721000.0
        },
        "radius": 10700.0
    },
    "Carme": {
        "gravitational_parameter": 8800000.0,
        "orbit": {
            "argument_of_periapsis": 0.4610461752068221,
            "eccentricity": 0.2546,
            "epoch": -43200.0,
            "inclination": 2.9142154219976106,
            "longitude_of_ascending_node": 2.250631637151018,
            "mean_anomaly_at_epoch": 4.073162141841767,
            "primary": "Jupiter",
            "semi_major_axis": 23401000000.0
        },
        "radius": 23000.0
    },
    "Carpo": {
        "gravitational_parameter": 3000.0,
        "orbit": {
            "argument_of_periapsis": 1.5772889516123154,
            "eccentricity": 0.4317,
            "epoch": -43200.0,
            "inclination": 0.9311252715297125,
            "longitude_of_ascending_node": 3.4235156525708934,
            "mean_anomaly_at_epoch": 5.882841683357127,
            "primary": "Jupiter",
            "semi_major_axis": 17056000000.0
        },
        "radius": 1500.0
    },
    "Ceres": {
        "gravitational_parameter": 63200000000.0,
        "orbit": {
            "argument_of_periapsis": 1.2708572513437593,
            "eccentricity": 0.07570505680427501,
            "epoch": 523195200.0,
            "inclination": 0.18486013036953183,
            "longitude_of_ascending_node": 1.4017485038561088,
            "mean_anomaly_at_epoch": 3.911200057350949,
            "primary": "Sun",
            "semi_major_axis": 414106983953.24585
        },
        "radius": 476200.0,
        "rotational_period": 32667.012000000002
    },
    "Chaldene": {
        "gravitational_parameter": 5000.0,
        "orbit": {
            "argument_of_periapsis": 4.2564740731787305,
            "eccentricity": 0.2503,
            "epoch": -43200.0,
            "inclination": 2.908675061084027,
            "longitude_of_ascending_node": 1.8686701859625077,
            "mean_anomaly_at_epoch": 4.667952897628914,
            "primary": "Jupiter",
            "semi_major_axis": 23181000000.0
        },
        "radius": 1900.0
    },
    "Charon": {
        "gravitational_parameter": 102300000000.0,
        "orbit": {
            "argument_of_periapsis": 2.550030756918835,
            "eccentricity": 0.0002,
            "epoch": 410270400.0,
            "inclination": 1.969608525634012,
            "longitude_of_ascending_node": 0.8277123481161487,
            "mean_anomaly_at_epoch": 2.2876030505889675,
            "primary": "Pluto",
            "semi_major_axis": 19591000.0
        },
        "radius": 603600.0
    },
    "Cordelia": {
        "gravitational_parameter": 3000000.0,
        "orbit": {
            "argument_of_periapsis": 2.3880816556262814,
            "eccentricity": 0.0003,
            "epoch": -440208000.0,
            "inclination": 1.4369344881578736,
            "longitude_of_ascending_node": 2.9271597251127317,
            "mean_anomaly_at_epoch": 4.447186200544151,
            "primary": "Uranus",
            "semi_major_axis": 49800000.0
        },
        "radius": 20100.0
    },
    "Cressida": {
        "gravitational_parameter": 22900000.0,
        "orbit": {
            "argument_of_periapsis": 0.7720638479122116,
            "eccentricity": 0.0004,
            "epoch": -440208000.0,
            "inclination": 1.4361167457793662,
            "longitude_of_ascending_node": 2.9259689106549294,
            "mean_anomaly_at_epoch": 4.0804925247001425,
            "primary": "Uranus",
            "semi_major_axis": 61800000.0
        },
        "radius": 41000.0
    },
    "Cupid": {
        "gravitational_parameter": 200000.0,
        "orbit": {
            "argument_of_periapsis": 4.321574854278119,
            "eccentricity": 0.0013,
            "epoch": 146707200.0,
            "inclination": 1.4359294395572362,
            "longitude_of_ascending_node": 2.9242445370324193,
            "mean_anomaly_at_epoch": 2.8593729135423103,
            "primary": "Uranus",
            "semi_major_axis": 74392000.0
        },
        "radius": 9000.0
    },
    "Cyllene": {
        "gravitational_parameter": 1000.0,
        "orbit": {
            "argument_of_periapsis": 3.271253163720452,
            "eccentricity": 0.4155,
            "epoch": -43200.0,
            "inclination": 2.5868387580238377,
            "longitude_of_ascending_node": 2.469809045369202,
            "mean_anomaly_at_epoch": 2.2400428284721223,
            "primary": "Jupiter",
            "semi_major_axis": 23800000000.0
        },
        "radius": 1000.0
    },
    "Daphnis": {
        "gravitational_parameter": 5200.0,
        "orbit": {
            "argument_of_periapsis": 4.658824825640983,
            "eccentricity": 0.0,
            "epoch": 0.0,
            "inclination": 0.48965333777001735,
            "longitude_of_ascending_node": 2.9587417550991475,
            "mean_anomaly_at_epoch": 1.9860101558443477,
            "primary": "Saturn",
            "semi_major_axis": 136504000.0
        },
        "radius": 3800.0
    },
    "Deimos": {
        "gravitational_parameter": 98500.0,
        "orbit": {
            "argument_of_periapsis": 4.550579505432295,
            "eccentricity": 0.0002,
            "epoch": -1577880000.0,
            "inclination": 0.48003697832772635,
            "longitude_of_ascending_node": 1.5085470422115368,
            "mean_anomaly_at_epoch": 5.678062202220633,
            "primary": "Mars",
            "semi_major_axis": 23458000.0
        },
        "radius": 6200.0
    },
    "Desdemona": {
        "gravitational_parameter": 11900000.0,
        "orbit": {
            "argument_of_periapsis": 3.198926719517807,
            "eccentricity": 0.0001,
            "epoch": -440208000.0,
            "inclination": 1.4344197664116314,
            "longitude_of_ascending_node": 2.9271587829868286,
            "mean_anomaly_at_epoch": 3.222349038079571,
            "primary": "Uranus",
            "semi_major_axis": 62700000.0
        },
        "radius": 35000.0
    },
    "Despina": {
        "gravitational_parameter": 140000000.0,
        "orbit": {
            "argument_of_periapsis": 3.0867369551996116,
            "eccentricity": 0.0002,
            "epoch": 0.0,
            "inclination": 0.4903013832026668,
            "longitude_of_ascending_node": 0.8598959932920585,
            "mean_anomaly_at_epoch": 4.028429353113152,
            "primary": "Neptune",
            "semi_major_axis": 52526000.0
        },
        "radius": 75000.0
    },
    "Dione": {
        "gravitational_parameter": 73114600000.0,
        "orbit": {
            "argument_of_periapsis": 4.962232862807678,
            "eccentricity": 0.0022,
            "epoch": 0.0,
            "inclination": 0.48915698971417415,
            "longitude_of_ascending_node": 2.9591802727917282,
            "mean_anomaly_at_epoch": 5.624009355286368,
            "primary": "Saturn",
            "semi_major_axis": 377415000.0
        },
        "radius": 561700.0
    },
    "Earth": {
        "gravitational_parameter": 398600682732000.0,
        "north_pole": {
            "declination": 1.5707963267948966,
            "right_ascension": 0.0
        },
        "orbit": {
            "argument_of_periapsis": 1.7966014740491711,
            "eccentricity": 0.01671123,
            "epoch": 0,
            "inclination": 6.283185039969678,
            "longitude_of_ascending_node": 0.0,
            "mean_anomaly_at_epoch": 6.2400213902032,
            "primary": "Sun",
            "semi_major_axis": 149598261150.4425
        },
        "radius": 6371000.0,
        "rotational_period": 86164.10035200001
    },
    "Elara": {
        "gravitational_parameter": 58000000.0,
        "orbit": {
            "argument_of_periapsis": 2.478384991124468,
            "eccentricity": 0.2108,
            "epoch": -43200.0,
            "inclination": 0.5228828663480449,
            "longitude_of_ascending_node": 2.338380209267853,
            "mean_anomaly_at_epoch": 5.7767780247134315,
            "primary": "Jupiter",
            "semi_major_axis": 11740000000.0
        },
        "radius": 43000.0
    },
    "Enceladus": {
        "gravitational_parameter": 7202700000.0,
        "orbit": {
            "argument_of_periapsis": 0.0013264502315156904,
            "eccentricity": 0.0,
            "epoch": 0.0,
            "inclination": 0.4895992237230654,
            "longitude_of_ascending_node": 2.9589236820074056,
            "mean_anomaly_at_epoch": 3.485178170137397,
            "primary": "Saturn",
            "semi_major_axis": 238042000.0
        },
        "radius": 252100.0
    }
}
